LIME                    
1 62648U 25009AR  26068.73906781  .00013254  00000+0  47723-3 0  9995
2 62648  97.3985 151.4831 0001635  35.9029 324.2320 15.28703313 63766
STARLINK-34137          
1 63953U 25099B   26068.34918514  .00026448  00000+0  96675-3 0  9997
2 63953  43.0034 178.2024 0000853 278.3603  81.7152 15.27594804 47281
